#dP2024  7 20  0  0  0.00000000      96 __u+U IGS20 FIT  IAC
## 2323 518400.00000000   900.00000000 60511 0.0000000000000
+  132   C01C02C03C04C05C06C07C08C09C10C11C12C13C14C16C19C20
+        C21C22C23C24C25C26C27C28C29C30C32C33C34C35C36C37C38
+        C39C40C41C42C43C44C45C59C60C62E02E03E04E05E06E07E08
+        E09E10E11E12E13E14E15E18E19E21E24E25E26E27E30E31E33
+        E34E36G01G02G03G04G05G06G07G08G09G10G11G12G13G14G15
+        G16G17G18G19G20G21G22G23G24G25G26G27G28G29G30G31G32
+        J02J03J04J07R01R02R03R04R05R06R07R08R09R10R11R12R13
+        R14R15R16R17R18R19R20R21R22R23R24R25R26  0  0  0  0
++        17 17 17  0 17  9 10  9  9 10  8  8  9  9  9  7  7
++         7  7  7  7  7  7  7  7  7  7  7  7  7  7  8  8  8
++         8  8  7  7  7  7  7 18 17 17  5  5  9  4  7  4  5
++         4  4  4  5  4  4  4  4  4  4  4  5  4  4  5  5  5
++         5  5  0  4  4  4  4  4  4  4  4  4  4  4  4  4  4
++         4  4  4  4  4  4  4  4  4  4  4  4  4  4  4  4  3
++        11 11 11 17  7  6  6  6  6 15  6  6  6 15  6  6  8
++         6  6  6  6  6  7  8  6  6 15  6  8  8  0  0  0  0
%c M  cc GPS ccc cccc cccc cccc cccc ccccc ccccc ccccc ccccc
%c cc cc ccc ccc cccc cccc cccc cccc ccccc ccccc ccccc ccccc
%f  0.0000000  0.000000000  0.00000000000  0.000000000000000
%f  0.0000000  0.000000000  0.00000000000  0.000000000000000
%i    0    0    0    0      0      0      0      0         0
%i    0    0    0    0      0      0      0      0         0
/* INFORMATION & ANALYSIS CENTER (IAC)            RAPID DATA
/* S/V CLOCKS ARE ALIGNED TO GNSS TIME                      
/* G:C1WC2W R:C1PC2P E:C1XC5X C:C2IC6I J:C1CC2S             
/* PCV:IGS20_2317 OL/AL:FES2004  NONE     YN ORB:CoN CLK:CoN
*  2024 07 20  0 15  0.00000000
PC01 -34350.998487  24458.940262    259.804137    909.141958
PC02   4446.187285  41862.704852  -1585.846123    866.047881
PC03 -14772.126399  39454.416016   -437.753513    589.669725
PC04      0.000000      0.000000      0.000000 999999.999999
PC05  21872.889361  36003.066789  -1505.705699   -591.258611
PC06  -2038.632067  29504.713011 -29855.097744    606.496908
PC07 -15598.733194  29897.022563  25283.756482   -535.233905
PC08 -10557.539463  40945.552368   -555.958447   -332.616531
PC09   7340.469639  34022.902937 -22867.768120    -56.672148
PC10  -7833.754830  30021.326958  28694.571477    -84.710723
PC11 -16096.528416 -18143.318084 -13721.360834    670.797957
PC12   3759.907293 -15262.737986 -23022.046759   -264.181341
PC13  -6586.271342  41484.857119  -4999.766303    438.675355
PC14  -5772.162092 -14905.401232  22885.489676    912.994195
PC16  -2009.444901  28824.792388 -30248.092663   -668.992341
PC19  14647.229815   7967.147841 -22366.301585   -919.441808
PC20  -2212.504877  18655.770499 -20620.949302   -704.980052
PC21  19504.387935 -19036.457667   6080.943630   -954.457561
PC22  24220.798206  -7938.155233 -11409.732725     65.946289
PC23 -16434.781354   -272.275043 -22539.744351   -801.201521
PC24  -1708.135459 -27793.475203   1626.415877    877.124996
PC25 -13261.875613 -19599.749492 -14780.896139    456.035920
PC26   9933.277600 -19661.797095  17097.334357   -322.227498
PC27 -13271.657330  10903.347783  21972.276302    343.116730
PC28 -24667.419051  -1221.131412  12988.179687    264.460732
PC29  22986.726128  14398.129589   6567.075279    310.485590
PC30   5857.958948  18007.047759  20482.915267   -137.465798
PC32 -19403.250001  19135.897097  -5951.063678   -677.926497
PC33 -14584.785879  -8020.677186  22390.443696   -962.011544
PC34  -7670.901397 -18233.101459 -19704.357293    480.796479
PC35  24879.969803    565.677590 -12611.746485    308.816255
PC36  12933.682902  19707.235333  14972.255993    140.375660
PC37 -10363.456437  19467.172808 -17097.780064   -920.696644
PC38 -14940.522963  38388.058891   9405.082209    168.228103
PC39  -8232.126408  24155.141305 -33448.869093     -9.220485
PC40 -22608.494747  23725.194631  26365.863212    -81.110059
PC41 -24028.728134   7236.579886  12231.327446   -940.488168
PC42   3987.051892 -19360.503861  19749.143285   -454.455009
PC43 -22404.229675 -14894.944332  -7453.823584     79.420120
PC44  13023.388323 -11484.832217 -21858.416653    538.064475
PC45  16347.275121    840.092937  22606.422608   -106.604571
PC59 -32301.929449  27063.053191   -731.324805      0.193485
PC60   7299.096410  41535.386855   -274.870729     -0.497459
PC62 -39588.197918  14443.442443    182.431792     -0.842036
PE02  20541.688329 -11648.520574  17842.160811    144.648774
PE03  28691.987726  -4685.946682   5613.048986   -128.072365
PE04 -14572.826165  14989.886506 -20945.101452     12.313743
PE05  25525.343344   8104.000981 -12612.916629   4767.488644
PE06  -3612.330757  17024.202943 -23955.518656     -6.631076
PE07  -7005.922456 -16319.108071  23683.356285   -132.027321
PE08  15524.733093 -14574.823325  20567.665260   -305.545767
PE09   6935.812373  16190.631582 -23790.724377   -521.745660
PE10   3244.066801  24787.414328  15846.829409   -641.806882
PE11  11236.807876  26587.032620   6529.367882   2316.113278
PE12  -4514.559048  19588.179320  21713.617882  -1131.090319
PE13 -10866.243737 -26598.934371  -7120.962465    -23.131597
PE14 -11916.199566 -15810.867185 -18896.599851    123.522584
PE15   4920.689143 -19126.799985 -22049.217795   -115.797330
PE18  27825.569844   7753.356679   9247.590215    342.680277
PE19 -29179.094392   3225.432762  -3763.696314    316.762987
PE21 -14559.713217  -8477.126138 -24332.992882   -606.363578
PE24   -390.653422  24525.182028  16570.782694   -883.312517
PE25  14319.417936   8914.944465  24333.301279      7.076447
PE26 -20191.169892 -17928.001736  12118.555242    517.212115
PE27    164.190648 -24397.025469 -16751.450203   -404.670671
PE30  14702.829256 -25678.128894    643.612519   -524.270911
PE31 -14593.370897  25744.990864   -586.704577    -29.886794
PE33 -17771.449559     48.681646  23665.419446     13.903632
PE34  17586.338993   -577.868679 -23814.521212   -123.605672
PE36  20019.720791  18403.298372 -11692.736227   -257.321664
PG01      0.000000      0.000000      0.000000 999999.999999
PG02 -20681.586286 -10479.265084  13707.430753   -395.733816
PG03 -16279.308859   2057.397647  20693.443598    465.367939
PG04 -26409.158877  -1234.739867   3260.653168    407.239545
PG05   9146.168923  14340.451242 -20562.886135   -180.328359
PG06   1512.621635  21242.905179  15862.737584    151.230977
PG07 -13884.455619   6523.651555 -21184.921116    -66.643383
PG08 -21846.100490  -7380.661334 -13658.523296    281.528381
PG09 -24077.364968   8024.496153  -8011.039283    279.978016
PG10  10082.812019 -24286.702531   2304.824225    -70.592018
PG11  11814.061171  23600.763841   3296.332274   -707.815104
PG12  15806.133012   1826.367612  20980.085270   -523.643752
PG13  14294.872026  13437.369671 -18229.400034    665.644901
PG14 -13049.794482  22937.550625  -1590.356836    452.791559
PG15  22427.707233   5284.079747 -13876.260047    183.011931
PG16  -5182.786956 -17660.737631 -19315.651774   -231.958530
PG17 -13318.188069  13364.826234  19179.986619    674.029979
PG18  13052.865078  -7267.246774 -21950.634594   -638.277959
PG19  -3272.925298  14793.028189  21617.862150    512.846131
PG20   3837.312735  22440.947781 -13738.335276    372.581695
PG21 -20679.772124 -15293.735084   8922.901991    107.846278
PG22  -8733.982242  24323.770433   7175.530305    -41.598477
PG23  15732.647364 -18819.082738  -9888.308562    277.757276
PG24  20815.233057  12592.869540  10701.022552   -483.795214
PG25  17700.115059 -10056.949584  16585.225713    498.668472
PG26   2456.732348 -24763.135904  -8890.577055    116.810039
PG27 -11916.344878 -13144.348045 -20181.541512    -31.504541
PG28     23.316400 -20287.243394  17132.335253   -338.328534
PG29  25906.193043  -3464.913004  -5132.724080   -588.676774
PG30  -5827.752777  16896.941606 -19413.210966   -354.869655
PG31  -8803.884153 -23563.100638   7668.305207   -226.626439
PG32  10490.282210 -14625.380248  19679.682124   -611.241883
PJ02 -28339.900921  30711.524663   -812.006526     -0.580951
PJ03 -25465.260385  23237.813157  29404.118421     -1.242672
PJ04 -32402.360851  25555.412712  -3336.154697     50.667411
PJ07 -25354.066369  33683.197399    -25.975235     -0.055241
PR01 -22925.944311  11103.976116   1184.552332     91.908123
PR02 -14722.356656  14489.292303 -14968.980790    -23.787922
PR03   2535.929666  10700.319486 -22974.594447    104.058717
PR04  17734.669821   1071.976578 -18269.719739    245.987714
PR05  23578.108432  -8946.381028  -3747.489403    134.770450
PR06  12921.078452 -15146.310453  15923.709991   -172.560195
PR07  -3354.830049 -10369.164438  23099.145289     87.016822
PR08 -17968.560971   -877.016943  18157.036923     -6.063771
PR09   5332.820369 -23473.350905   8591.663957    198.642300
PR10  -1536.455737 -24609.431898  -6381.409558   -192.236815
PR11  -8876.133597 -12493.994820 -20381.716836     17.660720
PR12 -10883.740150   8930.785310 -21242.288535     42.650148
PR13  -6689.417163  21992.007596 -11064.926098    -49.559986
PR14   2659.827149  23854.680936   8618.695900     26.720281
PR15   9398.291547  10854.370666  21106.118518     77.702349
PR16  10751.228954  -8777.742554  21426.350056     27.522591
PR17  13529.870112  16945.799899  13477.164664    106.125881
PR18  21263.476532  13832.621653  -2456.898099    152.806766
PR19  19053.409620   5508.457544 -16051.471023   -284.490823
PR20   3626.160934 -10208.885087 -23091.412148   -116.396516
PR21 -13016.403697 -16961.598428 -13889.491972   -118.946007
PR22 -21171.924053 -13756.720427   3679.199407     85.440942
PR23 -17686.376225  -2747.069479  18160.623039   -127.311761
PR24  -2938.045776  11069.665030  22806.787373    -64.417198
PR25 -12955.393664 -17599.423119 -13132.789911    -97.276261
PR26 -16970.020573  -1666.260077  18979.870489      5.212984
EOF
